{
    "links": {
        "self": "http://www.neowsapp.com/rest/v1/neo/54062094?api_key=iIulBulltgU6a56xZRHN4H3l9WmuAYTsLGpBGhQ2"
    },
    "id": "54062094",
    "neo_reference_id": "54062094",
    "name": "(2020 TD5)",
    "designation": "2020 TD5",
    "nasa_jpl_url": "http://ssd.jpl.nasa.gov/sbdb.cgi?sstr=54062094",
    "absolute_magnitude_h": 26.572,
    "estimated_diameter": {
        "kilometers": {
            "estimated_diameter_min": 0.0128870934,
            "estimated_diameter_max": 0.0288164169
        },
        "meters": {
            "estimated_diameter_min": 12.8870934149,
            "estimated_diameter_max": 28.816416908
        },
        "miles": {
            "estimated_diameter_min": 0.0080076661,
            "estimated_diameter_max": 0.0179056858
        },
        "feet": {
            "estimated_diameter_min": 42.2804915592,
            "estimated_diameter_max": 94.5420532486
        }
    },
    "is_potentially_hazardous_asteroid": false,
    "close_approach_data": [
        {
            "close_approach_date": "2020-10-12",
            "close_approach_date_full": "2020-Oct-12 04:24",
            "epoch_date_close_approach": 1602476640000,
            "relative_velocity": {
                "kilometers_per_second": "9.704905541",
                "kilometers_per_hour": "34937.659947557",
                "miles_per_hour": "21708.9032046362"
            },
            "miss_distance": {
                "astronomical": "0.0239487447",
                "lunar": "9.3160616883",
                "kilometers": "3582681.196293789",
                "miles": "2226174.8662767282"
            },
            "orbiting_body": "Earth"
        },
        {
            "close_approach_date": "2023-11-17",
            "close_approach_date_full": "2023-Nov-17 23:29",
            "epoch_date_close_approach": 1700263740000,
            "relative_velocity": {
                "kilometers_per_second": "22.7109109496",
                "kilometers_per_hour": "81759.2794185787",
                "miles_per_hour": "50802.0367031719"
            },
            "miss_distance": {
                "astronomical": "0.4653014188",
                "lunar": "181.0022519132",
                "kilometers": "69608101.160457956",
                "miles": "43252468.4174975528"
            },
            "orbiting_body": "Earth"
        }
    ],
    "orbital_data": {
        "orbit_id": "5",
        "orbit_determination_date": "2020-10-18 08:07:19",
        "first_observation_date": "2020-10-14",
        "last_observation_date": "2020-10-18",
        "data_arc_in_days": 4,
        "observations_used": 32,
        "orbit_uncertainty": "8",
        "minimum_orbit_intersection": ".00337426",
        "jupiter_tisserand_invariant": "3.531",
        "epoch_osculation": "2459138.5",
        "eccentricity": ".5354255617109044",
        "semi_major_axis": "2.113668736576613",
        "inclination": "6.805582083201478",
        "ascending_node_longitude": "14.95888876503332",
        "orbital_period": "1122.415905950217",
        "perihelion_distance": ".9819564660243022",
        "perihelion_argument": "339.3775106394225",
        "aphelion_distance": "3.245381007128923",
        "perihelion_time": "2459115.469145845677",
        "mean_anomaly": "7.38684069924791",
        "mean_motion": ".3207367234298327",
        "equinox": "J2000",
        "orbit_class": {
            "orbit_class_type": "APO",
            "orbit_class_description": "Near-Earth asteroid orbits which cross the Earth’s orbit similar to that of 1862 Apollo",
            "orbit_class_range": "a (semi-major axis) > 1.0 AU; q (perihelion) < 1.017 AU"
        }
    },
    "is_sentry_object": false
}